[
    {
        "Altitude(m)": 553490.0569677353,
        "Argument of Periapsis(deg)": 0.019868973332140504,
        "Eccentricity": 0.0,
        "Inclination(deg)": 53.0,
        "Latitude(deg)": 10.60646850662182,
        "Longitude(deg)": -170.447803162539,
        "Mean Anomaly(deg)": 166.63847860273276,
        "RAAN(deg)": 119.97043010558404,
        "Satellite Name": "Starlink Shell 1 536",
        "Satellite Number": 536,
        "Semi-Major Axis(m)": 6931778.249405717,
        "Time(s)": 570
    },
    {
        "Altitude(m)": 553498.0559489091,
        "Argument of Periapsis(deg)": 0.02021755181165174,
        "Eccentricity": 0.0,
        "Inclination(deg)": 53.0,
        "Latitude(deg)": 10.107290636377005,
        "Longitude(deg)": -170.09983047272857,
        "Mean Anomaly(deg)": 167.26530980628948,
        "RAAN(deg)": 119.96991133550655,
        "Satellite Name": "Starlink Shell 1 536",
        "Satellite Number": 536,
        "Semi-Major Axis(m)": 6931778.249405717,
        "Time(s)": 580
    },
    {
        "Altitude(m)": 553508.7406816708,
        "Argument of Periapsis(deg)": 0.020566130291162974,
        "Eccentricity": 0.0,
        "Inclination(deg)": 53.0,
        "Latitude(deg)": 9.607644932974797,
        "Longitude(deg)": -169.75306077648614,
        "Mean Anomaly(deg)": 167.89214100984623,
        "RAAN(deg)": 119.96939256542909,
        "Satellite Name": "Starlink Shell 1 536",
        "Satellite Number": 536,
        "Semi-Major Axis(m)": 6931778.249405717,
        "Time(s)": 590
    },
    {
        "Altitude(m)": 553522.1291411053,
        "Argument of Periapsis(deg)": 0.020914708770674213,
        "Eccentricity": 0.0,
        "Inclination(deg)": 53.0,
        "Latitude(deg)": 9.107556681909646,
        "Longitude(deg)": -169.4074315366795,
        "Mean Anomaly(deg)": 168.5189722134029,
        "RAAN(deg)": 119.96887379535164,
        "Satellite Name": "Starlink Shell 1 536",
        "Satellite Number": 536,
        "Semi-Major Axis(m)": 6931778.249405717,
        "Time(s)": 600
    },
    {
        "Altitude(m)": 553538.2380462848,
        "Argument of Periapsis(deg)": 0.021263287250185448,
        "Eccentricity": 0.0,
        "Inclination(deg)": 53.0,
        "Latitude(deg)": 8.607050928040296,
        "Longitude(deg)": -169.06288071287025,
        "Mean Anomaly(deg)": 169.14580341695958,
        "RAAN(deg)": 119.96835502527415,
        "Satellite Name": "Starlink Shell 1 536",
        "Satellite Number": 536,
        "Semi-Major Axis(m)": 6931778.249405717,
        "Time(s)": 610
    },
    {
        "Altitude(m)": 553557.0828491657,
        "Argument of Periapsis(deg)": 0.021611865729696686,
        "Eccentricity": 0.0,
        "Inclination(deg)": 53.0,
        "Latitude(deg)": 8.106152489289931,
        "Longitude(deg)": -168.7193462306179,
        "Mean Anomaly(deg)": 169.7726346205163,
        "RAAN(deg)": 119.96783625519667,
        "Satellite Name": "Starlink Shell 1 536",
        "Satellite Number": 536,
        "Semi-Major Axis(m)": 6931778.249405717,
        "Time(s)": 620
    },
    {
        "Altitude(m)": 553578.6777241426,
        "Argument of Periapsis(deg)": 0.02196044420920792,
        "Eccentricity": 0.0,
        "Inclination(deg)": 53.0,
        "Latitude(deg)": 7.604885970137656,
        "Longitude(deg)": -168.3767671318484,
        "Mean Anomaly(deg)": 170.39946582407308,
        "RAAN(deg)": 119.96731748511921,
        "Satellite Name": "Starlink Shell 1 536",
        "Satellite Number": 536,
        "Semi-Major Axis(m)": 6931778.249405717,
        "Time(s)": 630
    },
    {
        "Altitude(m)": 553603.0355582336,
        "Argument of Periapsis(deg)": 0.02230902268871916,
        "Eccentricity": 0.0,
        "Inclination(deg)": 53.0,
        "Latitude(deg)": 7.103275774904825,
        "Longitude(deg)": -168.03508220386132,
        "Mean Anomaly(deg)": 171.02629702762977,
        "RAAN(deg)": 119.96679871504172,
        "Satellite Name": "Starlink Shell 1 536",
        "Satellite Number": 536,
        "Semi-Major Axis(m)": 6931778.249405717,
        "Time(s)": 640
    },
    {
        "Altitude(m)": 553630.1679418837,
        "Argument of Periapsis(deg)": 0.022657601168230398,
        "Eccentricity": 0.0,
        "Inclination(deg)": 53.0,
        "Latitude(deg)": 6.601346120857969,
        "Longitude(deg)": -167.69423112988665,
        "Mean Anomaly(deg)": 171.65312823118649,
        "RAAN(deg)": 119.96627994496426,
        "Satellite Name": "Starlink Shell 1 536",
        "Satellite Number": 536,
        "Semi-Major Axis(m)": 6931778.249405717,
        "Time(s)": 650
    },
    {
        "Altitude(m)": 553660.0851604193,
        "Argument of Periapsis(deg)": 0.023006179647741636,
        "Eccentricity": 0.0,
        "Inclination(deg)": 53.0,
        "Latitude(deg)": 6.099121051132875,
        "Longitude(deg)": -167.35415395876439,
        "Mean Anomaly(deg)": 172.27995943474318,
        "RAAN(deg)": 119.96576117488678,
        "Satellite Name": "Starlink Shell 1 536",
        "Satellite Number": 536,
        "Semi-Major Axis(m)": 6931778.249405717,
        "Time(s)": 660
    },
    {
        "Altitude(m)": 553692.7961861824,
        "Argument of Periapsis(deg)": 0.023354758127252868,
        "Eccentricity": 0.0,
        "Inclination(deg)": 53.0,
        "Latitude(deg)": 5.596624447493844,
        "Longitude(deg)": -167.01479057471423,
        "Mean Anomaly(deg)": 172.9067906382999,
        "RAAN(deg)": 119.9652424048093,
        "Satellite Name": "Starlink Shell 1 536",
        "Satellite Number": 536,
        "Semi-Major Axis(m)": 6931778.249405717,
        "Time(s)": 670
    },
    {
        "Altitude(m)": 553728.3086712451,
        "Argument of Periapsis(deg)": 0.023703336606764106,
        "Eccentricity": 0.0,
        "Inclination(deg)": 53.0,
        "Latitude(deg)": 5.093880042944284,
        "Longitude(deg)": -166.67608168006686,
        "Mean Anomaly(deg)": 173.53362184185661,
        "RAAN(deg)": 119.96472363473184,
        "Satellite Name": "Starlink Shell 1 536",
        "Satellite Number": 536,
        "Semi-Major Axis(m)": 6931778.249405717,
        "Time(s)": 680
    },
    {
        "Altitude(m)": 553766.6289408559,
        "Argument of Periapsis(deg)": 0.024051915086275345,
        "Eccentricity": 0.0,
        "Inclination(deg)": 53.0,
        "Latitude(deg)": 4.590911434192837,
        "Longitude(deg)": -166.3379682652054,
        "Mean Anomaly(deg)": 174.16045304541336,
        "RAAN(deg)": 119.96420486465438,
        "Satellite Name": "Starlink Shell 1 536",
        "Satellite Number": 536,
        "Semi-Major Axis(m)": 6931778.249405717,
        "Time(s)": 690
    },
    {
        "Altitude(m)": 553807.761987504,
        "Argument of Periapsis(deg)": 0.024400493565786583,
        "Eccentricity": 0.0,
        "Inclination(deg)": 53.0,
        "Latitude(deg)": 4.0877420939913245,
        "Longitude(deg)": -166.00039107858672,
        "Mean Anomaly(deg)": 174.7872842489701,
        "RAAN(deg)": 119.96368609457689,
        "Satellite Name": "Starlink Shell 1 536",
        "Satellite Number": 536,
        "Semi-Major Axis(m)": 6931778.249405717,
        "Time(s)": 700
    },
    {
        "Altitude(m)": 553851.7114656577,
        "Argument of Periapsis(deg)": 0.024749072045297815,
        "Eccentricity": 0.0,
        "Inclination(deg)": 53.0,
        "Latitude(deg)": 3.5843953833582565,
        "Longitude(deg)": -165.6632916097111,
        "Mean Anomaly(deg)": 175.41411545252677,
        "RAAN(deg)": 119.96316732449942,
        "Satellite Name": "Starlink Shell 1 536",
        "Satellite Number": 536,
        "Semi-Major Axis(m)": 6931778.249405717,
        "Time(s)": 710
    },
    {
        "Altitude(m)": 553898.4796871657,
        "Argument of Periapsis(deg)": 0.025097650524809053,
        "Eccentricity": 0.0,
        "Inclination(deg)": 53.0,
        "Latitude(deg)": 3.080894563692868,
        "Longitude(deg)": -165.32661155928724,
        "Mean Anomaly(deg)": 176.0409466560835,
        "RAAN(deg)": 119.96264855442195,
        "Satellite Name": "Starlink Shell 1 536",
        "Satellite Number": 536,
        "Semi-Major Axis(m)": 6931778.249405717,
        "Time(s)": 720
    },
    {
        "Altitude(m)": 553948.0676173362,
        "Argument of Periapsis(deg)": 0.02544622900432029,
        "Eccentricity": 0.0,
        "Inclination(deg)": 53.0,
        "Latitude(deg)": 2.577262808796495,
        "Longitude(deg)": -164.9902923094614,
        "Mean Anomaly(deg)": 176.66777785964018,
        "RAAN(deg)": 119.96212978434447,
        "Satellite Name": "Starlink Shell 1 536",
        "Satellite Number": 536,
        "Semi-Major Axis(m)": 6931778.249405717,
        "Time(s)": 730
    },
    {
        "Altitude(m)": 554000.4748716935,
        "Argument of Periapsis(deg)": 0.02579480748383153,
        "Eccentricity": 0.0,
        "Inclination(deg)": 53.0,
        "Latitude(deg)": 2.0735232168121986,
        "Longitude(deg)": -164.65427590697618,
        "Mean Anomaly(deg)": 177.29460906319696,
        "RAAN(deg)": 119.961611014267,
        "Satellite Name": "Starlink Shell 1 536",
        "Satellite Number": 536,
        "Semi-Major Axis(m)": 6931778.249405717,
        "Time(s)": 740
    },
    {
        "Altitude(m)": 554055.6997133739,
        "Argument of Periapsis(deg)": 0.026143385963342765,
        "Eccentricity": 0.0,
        "Inclination(deg)": 53.0,
        "Latitude(deg)": 1.5696988220917276,
        "Longitude(deg)": -164.31850453350737,
        "Mean Anomaly(deg)": 177.92144026675368,
        "RAAN(deg)": 119.96109224418954,
        "Satellite Name": "Starlink Shell 1 536",
        "Satellite Number": 536,
        "Semi-Major Axis(m)": 6931778.249405717,
        "Time(s)": 750
    }
]